OBJECT_NAME,OBJECT_ID,EPOCH,MEAN_MOTION,ECCENTRICITY,INCLINATION,RA_OF_ASC_NODE,ARG_OF_PERICENTER,MEAN_ANOMALY,EPHEMERIS_TYPE,CLASSIFICATION_TYPE,NORAD_CAT_ID,ELEMENT_SET_NO,REV_AT_EPOCH,BSTAR,MEAN_MOTION_DOT,MEAN_MOTION_DDOT
CUTE-1 (CO-55),2003-031E,2026-06-27T00:17:49.448832,14.24341380,.0010136,98.6736,186.4477,150.4505,209.7249,0,U,27844,999,19307,.14187E-3,.284E-5,0
CUBESAT XI-IV (CO-57),2003-031J,2026-06-26T22:27:05.834016,14.23625736,.0009653,98.6768,186.0767,168.4758,191.6643,0,U,27848,999,19276,.1258E-3,.243E-5,0
CUBESAT XI-V,2005-043F,2026-06-26T21:57:38.655072,14.72656457,.0014316,98.2993,333.7414,169.8184,190.3315,0,U,28895,999,10318,.23373E-3,.1438E-4,0
CUTE-1.7+APD II (CO-65),2008-021C,2026-06-27T04:36:36.981216,15.09543869,.0008737,97.8271,159.8192,7.9192,352.2173,0,U,32785,999,98670,.31141E-3,.4934E-4,0
CANX-2,2008-021H,2026-06-26T22:11:27.974112,15.05685256,.0010772,97.8635,157.8920,22.2102,337.9588,0,U,32790,999,98627,.26291E-3,.3739E-4,0
SEEDS II (CO-66),2008-021J,2026-06-26T22:15:12.621024,15.33073710,.0000556,97.7516,176.2919,212.5247,147.5960,0,U,32791,999,98878,.61568E-3,.19616E-3,0
SWISSCUBE,2009-051B,2026-06-27T00:29:49.941888,14.62499043,.0006677,98.4029,86.0801,170.6881,189.4445,0,U,35932,999,89059,.2001E-3,.965E-5,0
BEESAT-1,2009-051C,2026-06-26T16:37:56.369856,14.61734342,.00048484,98.3957,85.3622,183.3217,176.7952,0,U,35933,999,89057,.16075564E-3,.752E-5,0
ITUPSAT1,2009-051E,2026-06-26T16:36:48.655584,14.60453570,.00067507,98.4042,84.5432,199.9772,160.1164,0,U,35935,999,89012,.15443273E-3,.7E-5,0
TISAT 1,2010-035E,2026-06-27T02:40:08.467968,15.32075173,.0002787,98.0704,125.5427,151.6215,208.5177,0,U,36799,999,86922,.69124E-3,.21359E-3,0
AEROCUBE 4.5A,2012-048K,2026-06-27T05:06:49.547808,16.10182059,.0018534,64.6176,349.8406,254.7310,105.1811,0,U,38767,999,37426,.1235E-2,.1199878E-1,.91737E-3
STRAND-1,2013-009E,2026-06-26T22:36:53.601120,14.37168802,.0008273,98.3924,357.9366,193.8738,166.2222,0,U,39090,999,69846,.11041E-3,.286E-5,0
BRITE-AUSTRIA,2013-009F,2026-06-27T00:41:48.518592,14.36545705,.0009625,98.3998,357.2212,204.5523,155.5206,0,U,39091,999,69846,.70819E-4,.165E-5,0
NEE-01 PEGASO,2013-018B,2026-06-27T02:42:51.573024,14.93708957,.0013536,98.1232,322.5920,128.5067,231.7367,0,U,39151,999,71218,.22838E-3,.2359E-4,0
POPACS 2,2013-055E,2026-06-26T21:44:11.336928,14.91465034,.0416428,80.9907,133.0666,162.5758,199.0261,0,U,39269,999,66466,.25348E-3,.1511E-3,0
POPACS 3,2013-055F,2026-06-27T03:37:24.223584,14.56301718,.0551116,81.0002,218.3833,39.6618,324.3554,0,U,39270,999,64000,.25251E-3,.10709E-3,0
ZACUBE-1 (TSHEPISOSAT),2013-066B,2026-06-27T03:19:56.195904,15.01240877,.0042184,97.8047,140.5267,213.8179,146.0354,0,U,39417,999,68222,.26151E-3,.3358E-4,0
WNISAT-1,2013-066H,2026-06-26T22:56:38.299776,14.58080550,.0162572,97.7211,326.4194,200.6625,158.7953,0,U,39423,999,66815,.21252E-3,.1124E-4,0
TRITON-1,2013-066M,2026-06-27T05:20:39.493248,14.81735861,.008914,97.8242,87.8017,200.7443,159.0144,0,U,39427,999,67557,.2033E-3,.1659E-4,0
GOMX-1,2013-066Q,2026-06-27T04:41:34.514304,14.69493629,.0129828,97.6483,18.0266,45.7732,315.4048,0,U,39430,999,67138,.31859E-3,.2099E-4,0
CUBEBUG-2 (LO-74),2013-066AA,2026-06-27T02:39:35.226432,14.93840328,.0057408,97.8903,127.1312,356.2386,3.8394,0,U,39440,999,67847,.42181E-3,.4564E-4,0
NEE-02 KRYSAOR,2013-066AB,2026-06-26T18:24:09.354816,14.86659035,.00671241,97.8892,116.9131,39.4303,321.1770,0,U,39441,999,67762,.29517323E-3,.2672E-4,0
FUNCUBE-1 (AO-73),2013-066AE,2026-06-27T04:45:49.347648,15.09604737,.0036673,97.8270,149.8537,166.8988,193.3201,0,U,39444,999,68117,.47725E-3,.7726E-4,0
UWE-3,2013-066AG,2026-06-26T20:10:13.067328,14.97101122,.00467941,97.8709,133.9799,288.3987,71.2149,0,U,39446,999,67902,.36186931E-3,.4205E-4,0
BRITE-CA1 (TORONTO),2014-033L,2026-06-27T05:30:23.908032,14.72691631,.0077359,97.9749,306.9728,244.3004,115.0202,0,U,40020,999,64369,.13861E-3,.872E-5,0
DUCHIFAT-1,2014-033M,2026-06-27T02:53:51.999072,15.66663856,.0001012,98.0447,238.6906,103.7667,256.3704,0,U,40021,999,65730,.11664E-2,.123708E-2,0
NANOSATC-BR1,2014-033Q,2026-06-27T01:41:46.087584,15.31766053,.0005075,98.0720,211.3356,138.8301,221.3322,0,U,40024,999,65549,.58279E-3,.17817E-3,0
QB50P1,2014-033R,2026-06-26T23:16:21.097632,15.18403426,.0008801,98.0962,189.8021,180.7024,179.4197,0,U,40025,999,65451,.43898E-3,.8965E-4,0
QB50P2,2014-033Y,2026-06-26T22:33:24.164928,15.15279708,.0008808,98.0751,175.4276,134.4942,225.7010,0,U,40032,999,65414,.42349E-3,.7905E-4,0
PERSEUS-M2,2014-033AD,2026-06-27T03:59:14.388000,14.95545473,.0010008,97.9973,128.9105,268.0734,91.9340,0,U,40037,999,65227,.1889E-3,.2035E-4,0
