CUTE-1 (CO-55)          
1 27844U 03031E   26178.01237788  .00000284  00000+0  14187-3 0  9999
2 27844  98.6736 186.4477 0010136 150.4505 209.7249 14.24341380193077
CUBESAT XI-IV (CO-57)   
1 27848U 03031J   26177.93548419  .00000243  00000+0  12580-3 0  9999
2 27848  98.6768 186.0767 0009653 168.4758 191.6643 14.23625736192766
CUBESAT XI-V            
1 28895U 05043F   26177.91503073  .00001438  00000+0  23373-3 0  9991
2 28895  98.2993 333.7414 0014316 169.8184 190.3315 14.72656457103183
CUTE-1.7+APD II (CO-65) 
1 32785U 08021C   26178.19209469  .00004934  00000+0  31141-3 0  9992
2 32785  97.8271 159.8192 0008737   7.9192 352.2173 15.09543869986702
CANX-2                  
1 32790U 08021H   26177.92462933  .00003739  00000+0  26291-3 0  9997
2 32790  97.8635 157.8920 0010772  22.2102 337.9588 15.05685256986277
SEEDS II (CO-66)        
1 32791U 08021J   26177.92722941  .00019616  00000+0  61568-3 0  9993
2 32791  97.7516 176.2919 0000556 212.5247 147.5960 15.33073710988785
SWISSCUBE               
1 35932U 09051B   26178.02071692  .00000965  00000+0  20010-3 0  9993
2 35932  98.4029  86.0801 0006677 170.6881 189.4445 14.62499043890594
BEESAT-1                
1 35933U 09051C   26177.69301354  .00000752  00000+0  16076-3 0  9998
2 35933  98.3957  85.3622 0004848 183.3217 176.7952 14.61734342890572
ITUPSAT1                
1 35935U 09051E   26177.69222981  .00000700  00000+0  15443-3 0  9998
2 35935  98.4042  84.5432 0006750 199.9772 160.1164 14.60453570890126
TISAT 1                 
1 36799U 10035E   26178.11120912  .00021359  00000+0  69124-3 0  9998
2 36799  98.0704 125.5427 0002787 151.6215 208.5177 15.32075173869226
AEROCUBE 4.5A           
1 38767U 12048K   26178.21307347  .01199878  91737-3  12350-2 0  9993
2 38767  64.6176 349.8406 0018534 254.7310 105.1811 16.10182059374262
STRAND-1                
1 39090U 13009E   26177.94228705  .00000286  00000+0  11041-3 0  9999
2 39090  98.3924 357.9366 0008273 193.8738 166.2222 14.37168802698460
BRITE-AUSTRIA           
1 39091U 13009F   26178.02903378  .00000165  00000+0  70819-4 0  9991
2 39091  98.3998 357.2212 0009625 204.5523 155.5206 14.36545705698462
NEE-01 PEGASO           
1 39151U 13018B   26178.11309691  .00002359  00000+0  22838-3 0  9990
2 39151  98.1232 322.5920 0013536 128.5067 231.7367 14.93708957712187
POPACS 2                
1 39269U 13055E   26177.90568677  .00015110  00000+0  25348-3 0  9996
2 39269  80.9907 133.0666 0416428 162.5758 199.0261 14.91465034664661
POPACS 3                
1 39270U 13055F   26178.15097481  .00010709  00000+0  25251-3 0  9998
2 39270  81.0002 218.3833 0551116  39.6618 324.3554 14.56301718640006
ZACUBE-1 (TSHEPISOSAT)  
1 39417U 13066B   26178.13884486  .00003358  00000+0  26151-3 0  9992
2 39417  97.8047 140.5267 0042184 213.8179 146.0354 15.01240877682224
WNISAT-1                
1 39423U 13066H   26177.95599884  .00001124  00000+0  21252-3 0  9999
2 39423  97.7211 326.4194 0162572 200.6625 158.7953 14.58080550668153
TRITON-1                
1 39427U 13066M   26178.22267932  .00001659  00000+0  20330-3 0  9999
2 39427  97.8242  87.8017 0089140 200.7443 159.0144 14.81735861675570
GOMX-1                  
1 39430U 13066Q   26178.19553836  .00002099  00000+0  31859-3 0  9997
2 39430  97.6483  18.0266 0129828  45.7732 315.4048 14.69493629671382
CUBEBUG-2 (LO-74)       
1 39440U 13066AA  26178.11082438  .00004564  00000+0  42181-3 0  9994
2 39440  97.8903 127.1312 0057408 356.2386   3.8394 14.93840328678473
NEE-02 KRYSAOR          
1 39441U 13066AB  26177.76677494  .00002672  00000+0  29517-3 0  9993
2 39441  97.8892 116.9131 0067124  39.4303 321.1770 14.86659035677626
FUNCUBE-1 (AO-73)       
1 39444U 13066AE  26178.19848782  .00007726  00000+0  47725-3 0  9990
2 39444  97.8270 149.8537 0036673 166.8988 193.3201 15.09604737681171
UWE-3                   
1 39446U 13066AG  26177.84042902  .00004205  00000+0  36187-3 0  9992
2 39446  97.8709 133.9799 0046794 288.3987  71.2149 14.97101122679020
BRITE-CA1 (TORONTO)     
1 40020U 14033L   26178.22944338  .00000872  00000+0  13861-3 0  9994
2 40020  97.9749 306.9728 0077359 244.3004 115.0202 14.72691631643695
DUCHIFAT-1              
1 40021U 14033M   26178.12074073  .00123708  00000+0  11664-2 0  9996
2 40021  98.0447 238.6906 0001012 103.7667 256.3704 15.66663856657309
NANOSATC-BR1            
1 40024U 14033Q   26178.07067231  .00017817  00000+0  58279-3 0  9998
2 40024  98.0720 211.3356 0005075 138.8301 221.3322 15.31766053655491
QB50P1                  
1 40025U 14033R   26177.96968863  .00008965  00000+0  43898-3 0  9992
2 40025  98.0962 189.8021 0008801 180.7024 179.4197 15.18403426654518
QB50P2                  
1 40032U 14033Y   26177.93986302  .00007905  00000+0  42349-3 0  9998
2 40032  98.0751 175.4276 0008808 134.4942 225.7010 15.15279708654146
PERSEUS-M2              
1 40037U 14033AD  26178.16613875  .00002035  00000+0  18890-3 0  9994
2 40037  97.9973 128.9105 0010008 268.0734  91.9340 14.95545473652270
